[{"OBJECT_NAME":"IRIDIUM 118","OBJECT_ID":"2017-039E","EPOCH":"2026-03-09T21:26:30.895296","MEAN_MOTION":14.34218754,"ECCENTRICITY":0.00022329,"INCLINATION":86.3973,"RA_OF_ASC_NODE":35.1169,"ARG_OF_PERICENTER":84.727,"MEAN_ANOMALY":275.4181,"EPHEMERIS_TYPE":0,"CLASSIFICATION_TYPE":"U","NORAD_CAT_ID":42807,"ELEMENT_SET_NO":999,"REV_AT_EPOCH":45571,"BSTAR":0.00012914778,"MEAN_MOTION_DOT":3.81e-6,"MEAN_MOTION_DDOT":0},{"OBJECT_NAME":"SL-12 DEB","OBJECT_ID":"1985-042J","EPOCH":"2026-03-09T22:20:34.077408","MEAN_MOTION":14.44456774,"ECCENTRICITY":0.00505398,"INCLINATION":66.5631,"RA_OF_ASC_NODE":294.2833,"ARG_OF_PERICENTER":291.0074,"MEAN_ANOMALY":178.629,"EPHEMERIS_TYPE":0,"CLASSIFICATION_TYPE":"U","NORAD_CAT_ID":18766,"ELEMENT_SET_NO":999,"REV_AT_EPOCH":97554,"BSTAR":0.00088461882,"MEAN_MOTION_DOT":3.015e-5,"MEAN_MOTION_DDOT":0}]
